OBJECT_NAME,OBJECT_ID,EPOCH,MEAN_MOTION,ECCENTRICITY,INCLINATION,RA_OF_ASC_NODE,ARG_OF_PERICENTER,MEAN_ANOMALY,EPHEMERIS_TYPE,CLASSIFICATION_TYPE,NORAD_CAT_ID,ELEMENT_SET_NO,REV_AT_EPOCH,BSTAR,MEAN_MOTION_DOT,MEAN_MOTION_DDOT
APRIZESAT 2,2004-025A,2026-06-27T00:37:22.467072,14.38039728,.0104742,98.1021,343.4498,219.8332,139.5136,0,U,28366,999,15305,.74822E-4,.198E-5,0
SAUDICOMSAT 1,2004-025D,2026-06-26T23:37:32.622240,14.55480938,.0032008,98.5770,188.3801,355.8765,4.2163,0,U,28369,999,16555,.93565E-4,.36E-5,0
SAUDICOMSAT 2,2004-025E,2026-06-26T23:49:59.041344,14.49986101,.0054501,98.6639,190.5167,229.2174,130.4283,0,U,28370,999,16152,.69748E-4,.225E-5,0
APRIZESAT 1,2004-025G,2026-06-27T00:18:09.785664,14.51782213,.0045553,98.6302,189.0056,124.5250,236.0258,0,U,28372,999,16333,.77776E-4,.268E-5,0
NANOSAT-1,2004-049B,2026-06-27T04:10:33.462624,14.80178203,.0002752,98.2286,315.0798,255.4134,104.6772,0,U,28493,999,15692,.14496E-3,.1046E-4,0
SAUDICOMSAT 7,2007-012C,2026-06-26T20:56:07.101888,14.66118757,.0055985,98.3782,152.2023,164.8226,195.4673,0,U,31119,999,2385,.96912367E-4,.491E-5,0
SAUDICOMSAT 6,2007-012E,2026-06-27T03:31:42.190176,14.62568868,.0070533,98.4102,145.8489,296.3378,63.0591,0,U,31121,999,2164,.10484E-3,.497E-5,0
SAUDICOMSAT 5,2007-012H,2026-06-27T04:09:05.528160,14.68169016,.0048732,98.3494,153.2541,94.0971,266.5805,0,U,31124,999,2506,.1288E-3,.701E-5,0
SAUDICOMSAT 3,2007-012J,2026-06-26T21:53:24.733248,14.70721610,.0039655,98.3147,153.5354,23.1983,337.1002,0,U,31125,999,2625,.15044E-3,.874E-5,0
SAUDICOMSAT 4,2007-012L,2026-06-26T20:33:18.429984,14.64520510,.00623698,98.3987,150.6244,227.4193,132.1737,0,U,31127,999,2270,.85372045E-4,.411E-5,0
APRIZESAT 4,2009-041D,2026-06-27T04:04:01.545312,14.83891448,.0041948,98.1410,253.6888,289.8347,69.8347,0,U,35684,999,91284,.8357E-4,.645E-5,0
APRIZESAT 3,2009-041F,2026-06-26T23:54:43.986816,14.96270364,.0062493,98.2075,331.6907,35.7192,324.8184,0,U,35686,999,91784,.89999E-4,.988E-5,0
S-NET D,2018-014G,2026-06-26T16:45:26.839584,15.16756105,.00079017,97.5361,82.4296,359.1582,0.9636,0,U,43186,999,46020,.26512296E-3,.5138E-4,0
S-NET B,2018-014H,2026-06-26T23:22:12.711936,15.16730242,.0008313,97.5364,82.6904,353.1623,6.9495,0,U,43187,999,46024,.2681E-3,.5193E-4,0
S-NET A,2018-014J,2026-06-26T16:43:45.399072,15.16764284,.0008295,97.5374,82.6260,354.3716,5.7422,0,U,43188,999,46020,.26959695E-3,.5228E-4,0
S-NET C,2018-014K,2026-06-26T17:07:51.397248,15.16718962,.00093685,97.5389,82.7188,344.9812,15.1141,0,U,43189,999,45875,.253468E-3,.4905E-4,0
SALSAT,2020-068K,2026-06-26T22:57:28.471392,15.29932421,.0007823,97.8848,181.6168,266.2984,93.7361,0,U,46495,999,31685,.28601E-3,.8212E-4,0
OOV-CUBE (TUBSAT-30),2024-128F,2026-06-27T04:03:47.035296,15.02807809,.0043394,61.9924,190.7644,135.9985,224.4574,0,U,60240,999,10761,.14541E-3,.1779E-4,0
LPNTSAT-001 (IOD-1),2026-065A,2026-06-27T03:48:15.782400,15.18586417,.0015594,97.4012,58.4571,335.5283,24.5209,0,U,68408,999,1377,.1465E-3,.297E-4,0
