APRIZESAT 2             
1 28366U 04025A   26178.02595448  .00000198  00000+0  74822-4 0  9991
2 28366  98.1021 343.4498 0104742 219.8332 139.5136 14.38039728153056
SAUDICOMSAT 1           
1 28369U 04025D   26177.98440535  .00000360  00000+0  93565-4 0  9990
2 28369  98.5770 188.3801 0032008 355.8765   4.2163 14.55480938165552
SAUDICOMSAT 2           
1 28370U 04025E   26177.99304446  .00000225  00000+0  69748-4 0  9999
2 28370  98.6639 190.5167 0054501 229.2174 130.4283 14.49986101161523
APRIZESAT 1             
1 28372U 04025G   26178.01261326  .00000268  00000+0  77776-4 0  9991
2 28372  98.6302 189.0056 0045553 124.5250 236.0258 14.51782213163338
NANOSAT-1               
1 28493U 04049B   26178.17399841  .00001046  00000+0  14496-3 0  9996
2 28493  98.2286 315.0798 0002752 255.4134 104.6772 14.80178203156920
SAUDICOMSAT 7           
1 31119U 07012C   26177.87230442  .00000491  00000+0  96912-4 0  9992
2 31119  98.3782 152.2023 0055985 164.8226 195.4673 14.66118757 23859
SAUDICOMSAT 6           
1 31121U 07012E   26178.14701609  .00000497  00000+0  10484-3 0  9999
2 31121  98.4102 145.8489 0070533 296.3378  63.0591 14.62568868 21640
SAUDICOMSAT 5           
1 31124U 07012H   26178.17298065  .00000701  00000+0  12880-3 0  9992
2 31124  98.3494 153.2541 0048732  94.0971 266.5805 14.68169016 25062
SAUDICOMSAT 3           
1 31125U 07012J   26177.91209182  .00000874  00000+0  15044-3 0  9992
2 31125  98.3147 153.5354 0039655  23.1983 337.1002 14.70721610 26256
SAUDICOMSAT 4           
1 31127U 07012L   26177.85646331  .00000411  00000+0  85372-4 0  9997
2 31127  98.3987 150.6244 0062369 227.4193 132.1737 14.64520510 22709
APRIZESAT 4             
1 35684U 09041D   26178.16946233  .00000645  00000+0  83570-4 0  9999
2 35684  98.1410 253.6888 0041948 289.8347  69.8347 14.83891448912849
APRIZESAT 3             
1 35686U 09041F   26177.99634244  .00000988  00000+0  89999-4 0  9998
2 35686  98.2075 331.6907 0062493  35.7192 324.8184 14.96270364917842
S-NET D                 
1 43186U 18014G   26177.69822731  .00005138  00000+0  26512-3 0  9992
2 43186  97.5361  82.4296 0007901 359.1582   0.9636 15.16756105460209
S-NET B                 
1 43187U 18014H   26177.97375824  .00005193  00000+0  26810-3 0  9992
2 43187  97.5364  82.6904 0008313 353.1623   6.9495 15.16730242460246
S-NET A                 
1 43188U 18014J   26177.69705323  .00005228  00000+0  26960-3 0  9998
2 43188  97.5374  82.6260 0008295 354.3716   5.7422 15.16764284460204
S-NET C                 
1 43189U 18014K   26177.71378932  .00004905  00000+0  25347-3 0  9993
2 43189  97.5389  82.7188 0009368 344.9812  15.1141 15.16718962458757
SALSAT                  
1 46495U 20068K   26177.95657953  .00008212  00000+0  28601-3 0  9998
2 46495  97.8848 181.6168 0007823 266.2984  93.7361 15.29932421316852
OOV-CUBE (TUBSAT-30)    
1 60240U 24128F   26178.16929439  .00001779  00000+0  14541-3 0  9997
2 60240  61.9924 190.7644 0043394 135.9985 224.4574 15.02807809107612
LPNTSAT-001 (IOD-1)     
1 68408U 26065A   26178.15851600  .00002970  00000+0  14650-3 0  9991
2 68408  97.4012  58.4571 0015594 335.5283  24.5209 15.18586417 13770
